     3.04           N: GNSS NAV DATA    E: GALILEO          RINEX VERSION / TYPE
sbf2rin-13.8.0                          20220221 000352 UTC PGM / RUN BY / DATE 
GAL    8.1250E+01 -2.4609E-01  3.7537E-03  0.0000E+00       IONOSPHERIC CORR    
GAGP  5.9080775827E-09 3.552713679E-15  86400 2198          TIME SYSTEM CORR    
GAUT -9.3132257462E-10 8.881784197E-16      0 2198          TIME SYSTEM CORR    
    18                                                      LEAP SECONDS        
                                                            END OF HEADER       
E33 2022 02 20 11 30 00-4.592548357323E-04 3.410605131648E-13 0.000000000000E+00
     6.900000000000E+01 4.234375000000E+01 2.300095808223E-09 2.007431807947E+00
     1.998618245125E-06 3.608524566516E-04 1.264363527298E-05 5.440613960266E+03
     4.140000000000E+04 1.862645149231E-09-2.190461941966E+00-2.235174179077E-08
     9.970449807083E-01 8.571875000000E+01-8.496038004714E-01-5.234860910112E-09
     3.596578383355E-10 2.580000000000E+02 2.198000000000E+03
     3.120000000000E+00 0.000000000000E+00-3.492459654808E-09 0.000000000000E+00
     4.244000000000E+04
E25 2022 02 20 11 40 00-5.642639007419E-04-1.307398633799E-12 0.000000000000E+00
     7.000000000000E+01 5.709375000000E+01 3.398355840876E-09 9.820870880749E-01
     2.749264240265E-06 2.540018176660E-04 2.712011337280E-06 5.440611038208E+03
     4.200000000000E+04 3.352761268616E-08 2.009332216066E+00 4.842877388000E-08
     9.738151333662E-01 2.869062500000E+02-5.541901315577E-02-5.958819637327E-09
     3.107272287506E-11 5.170000000000E+02 2.198000000000E+03
     3.120000000000E+00 0.000000000000E+00 3.958120942116E-09 4.190951585770E-09
     4.266500000000E+04
E03 2022 02 20 11 40 00-5.297062452883E-04-4.050093593833E-12 0.000000000000E+00
     7.000000000000E+01-1.122500000000E+02 3.380497954166E-09 1.922450286685E+00
    -5.183741450310E-06 1.829211832955E-04 9.369105100632E-06 5.440619052887E+03
     4.200000000000E+04-3.352761268616E-08-8.726158734394E-02-1.490116119385E-08
     9.565787984894E-01 1.373125000000E+02 3.164555993831E-01-5.668807557160E-09
    -3.907305612105E-10 5.170000000000E+02 2.198000000000E+03
     3.120000000000E+00 0.000000000000E+00 3.259629011154E-09 3.725290298462E-09
     4.266500000000E+04
E24 2022 02 20 11 40 00-1.400846638717E-03-2.077626959363E-11 0.000000000000E+00
     7.000000000000E+01 5.171875000000E+01 3.341924918873E-09 1.076340029677E+00
     2.365559339523E-06 7.530978182331E-04 3.140419721603E-06 5.440601963043E+03
     4.200000000000E+04-5.029141902924E-08 2.013686509806E+00 3.911554813385E-08
     9.717244361775E-01 2.788750000000E+02 6.832010572892E-01-5.922032390705E-09
     3.857303529318E-11 5.170000000000E+02 2.198000000000E+03
     3.120000000000E+00 0.000000000000E+00-3.725290298462E-09-4.656612873077E-09
     4.266500000000E+04
E33 2022 02 20 11 40 00-4.592553013936E-04 3.552713678801E-13 0.000000000000E+00
     7.000000000000E+01 4.059375000000E+01 2.286880972058E-09 2.081142314902E+00
     1.918524503708E-06 3.604055382311E-04 1.280941069126E-05 5.440614973068E+03
     4.200000000000E+04 5.587935447693E-09-2.190465063834E+00-2.607703208923E-08
     9.970452045348E-01 8.200000000000E+01-8.489290982645E-01-5.235575225580E-09
     3.568005764619E-10 5.170000000000E+02 2.198000000000E+03
     3.120000000000E+00 0.000000000000E+00-3.492459654808E-09-3.958120942116E-09
     4.266500000000E+04
E10 2022 02 20 11 40 00-4.964135587215E-04-2.074784788419E-12 0.000000000000E+00
     7.000000000000E+01 4.440625000000E+01 2.286523814323E-09-7.713495255524E-01
     2.169981598854E-06 4.640570841730E-05 1.184269785881E-05 5.440609399796E+03
     4.200000000000E+04 2.607703208923E-08-2.192225669650E+00 2.048909664154E-08
     9.969404713037E-01 1.047187500000E+02 8.169713573134E-01-5.217360181136E-09
     3.818016178556E-10 5.170000000000E+02 2.198000000000E+03
     3.120000000000E+00 4.550000000000E+02 0.000000000000E+00 9.313225746155E-10
     4.266500000000E+04
E02 2022 02 20 11 40 00 2.814792678691E-04 2.472688720445E-12 0.000000000000E+00
     7.000000000000E+01 4.981250000000E+01 3.454429605145E-09-2.062262625630E-01
     2.367421984673E-06 4.956955090165E-04 2.142041921616E-06 5.440600349426E+03
     4.200000000000E+04 6.705522537231E-08 2.012232152723E+00 1.490116119385E-08
     9.742396443974E-01 2.966562500000E+02 3.754219445738E-01-5.989535202468E-09
     2.892977646988E-11 5.170000000000E+02 2.198000000000E+03
     3.120000000000E+00 0.000000000000E+00-9.313225746155E-10-1.629814505577E-09
     4.266500000000E+04
E25 2022 02 20 11 40 00-5.642637843266E-04-1.307398633799E-12 0.000000000000E+00
     7.000000000000E+01 5.709375000000E+01 3.398355840876E-09 9.820870880749E-01
     2.749264240265E-06 2.540018176660E-04 2.712011337280E-06 5.440611038208E+03
     4.200000000000E+04 3.352761268616E-08 2.009332216066E+00 4.842877388000E-08
     9.738151333662E-01 2.869062500000E+02-5.541901315577E-02-5.958819637327E-09
     3.107272287506E-11 2.580000000000E+02 2.198000000000E+03
     3.120000000000E+00 0.000000000000E+00 3.958120942116E-09 0.000000000000E+00
     4.274000000000E+04
E03 2022 02 20 11 40 00-5.297063034959E-04-4.064304448548E-12 0.000000000000E+00
     7.000000000000E+01-1.122500000000E+02 3.380497954166E-09 1.922450286685E+00
    -5.183741450310E-06 1.829211832955E-04 9.369105100632E-06 5.440619052887E+03
     4.200000000000E+04-3.352761268616E-08-8.726158734394E-02-1.490116119385E-08
     9.565787984894E-01 1.373125000000E+02 3.164555993831E-01-5.668807557160E-09
    -3.907305612105E-10 2.580000000000E+02 2.198000000000E+03
     3.120000000000E+00 0.000000000000E+00 3.259629011154E-09 0.000000000000E+00
     4.274000000000E+04
E24 2022 02 20 11 40 00-1.400845299941E-03-2.077626959363E-11 0.000000000000E+00
     7.000000000000E+01 5.171875000000E+01 3.341924918873E-09 1.076340029677E+00
     2.365559339523E-06 7.530978182331E-04 3.140419721603E-06 5.440601963043E+03
     4.200000000000E+04-5.029141902924E-08 2.013686509806E+00 3.911554813385E-08
     9.717244361775E-01 2.788750000000E+02 6.832010572892E-01-5.922032390705E-09
     3.857303529318E-11 2.580000000000E+02 2.198000000000E+03
     3.120000000000E+00 0.000000000000E+00-3.725290298462E-09 0.000000000000E+00
     4.274000000000E+04
E02 2022 02 20 11 40 00 2.814805484377E-04 2.486899575160E-12 0.000000000000E+00
     7.000000000000E+01 4.981250000000E+01 3.454429605145E-09-2.062262625630E-01
     2.367421984673E-06 4.956955090165E-04 2.142041921616E-06 5.440600349426E+03
     4.200000000000E+04 6.705522537231E-08 2.012232152723E+00 1.490116119385E-08
     9.742396443974E-01 2.966562500000E+02 3.754219445738E-01-5.989535202468E-09
     2.892977646988E-11 2.580000000000E+02 2.198000000000E+03
     3.120000000000E+00 0.000000000000E+00-9.313225746155E-10 0.000000000000E+00
     4.274000000000E+04
E33 2022 02 20 11 40 00-4.592544864863E-04 3.552713678801E-13 0.000000000000E+00
     7.000000000000E+01 4.059375000000E+01 2.286880972058E-09 2.081142314902E+00
     1.918524503708E-06 3.604055382311E-04 1.280941069126E-05 5.440614973068E+03
     4.200000000000E+04 5.587935447693E-09-2.190465063834E+00-2.607703208923E-08
     9.970452045348E-01 8.200000000000E+01-8.489290982645E-01-5.235575225580E-09
     3.568005764619E-10 2.580000000000E+02 2.198000000000E+03
     3.120000000000E+00 0.000000000000E+00-3.492459654808E-09 0.000000000000E+00
     4.274000000000E+04
E10 2022 02 20 11 40 00-4.964137333445E-04-2.060573933704E-12 0.000000000000E+00
     7.000000000000E+01 4.440625000000E+01 2.286523814323E-09-7.713495255524E-01
     2.169981598854E-06 4.640570841730E-05 1.184269785881E-05 5.440609399796E+03
     4.200000000000E+04 2.607703208923E-08-2.192225669650E+00 2.048909664154E-08
     9.969404713037E-01 1.047187500000E+02 8.169713573134E-01-5.217360181136E-09
     3.818016178556E-10 2.580000000000E+02 2.198000000000E+03
     3.120000000000E+00 5.600000000000E+01 0.000000000000E+00 0.000000000000E+00
     4.274000000000E+04
E25 2022 02 20 11 50 00-5.642647156492E-04-1.307398633799E-12 0.000000000000E+00
     7.100000000000E+01 5.712500000000E+01 3.394784263534E-09 1.055590028899E+00
     2.751126885414E-06 2.539915731177E-04 2.803280949593E-06 5.440611484528E+03
     4.260000000000E+04 3.352761268616E-08 2.009328626065E+00 5.401670932770E-08
     9.738151406808E-01 2.851250000000E+02-5.453616550162E-02-5.958819637327E-09
     3.357282701443E-11 5.170000000000E+02 2.198000000000E+03
     3.120000000000E+00 0.000000000000E+00 3.958120942116E-09 4.190951585770E-09
     4.326500000000E+04
E03 2022 02 20 11 50 00-5.297086318024E-04-4.050093593833E-12 0.000000000000E+00
     7.100000000000E+01-1.127812500000E+02 3.382998058305E-09 1.996458395066E+00
    -5.209818482399E-06 1.828188542277E-04 9.329989552498E-06 5.440619298935E+03
     4.260000000000E+04-3.725290298462E-08-8.726492718592E-02 0.000000000000E+00
     9.565785322383E-01 1.381562500000E+02 3.168328274390E-01-5.677736500515E-09
    -3.939449808183E-10 5.170000000000E+02 2.198000000000E+03
     3.120000000000E+00 0.000000000000E+00 3.259629011154E-09 3.725290298462E-09
     4.326500000000E+04
E24 2022 02 20 11 50 00-1.400859095156E-03-2.077626959363E-11 0.000000000000E+00
     7.100000000000E+01 5.275000000000E+01 3.346210811683E-09 1.150892144626E+00
     2.399086952209E-06 7.531137671322E-04 3.140419721603E-06 5.440601713181E+03
     4.260000000000E+04-5.401670932770E-08 2.013682921268E+00 3.352761268616E-08
     9.717244610471E-01 2.788437500000E+02 6.830348215191E-01-5.918460813363E-09
     4.107313943255E-11 5.170000000000E+02 2.198000000000E+03
     3.120000000000E+00 0.000000000000E+00-3.725290298462E-09-4.656612873077E-09
     4.326500000000E+04
